CCSDS_OMM_VERS = 2.0
CREATION_DATE  = 
ORIGINATOR     = 

OBJECT_NAME    = ISS (ZARYA)
OBJECT_ID      = 1998-067A
CENTER_NAME    = EARTH
REF_FRAME      = TEME
TIME_SYSTEM    = UTC
MEAN_ELEMENT_THEORY = SGP/SGP4

EPOCH          = 2026-02-24T12:58:47.876160
MEAN_MOTION    = 15.48264633
ECCENTRICITY   = .00083509
INCLINATION    = 51.6319
RA_OF_ASC_NODE = 137.3540
ARG_OF_PERICENTER = 128.7945
MEAN_ANOMALY   = 231.3790

EPHEMERIS_TYPE = 0
CLASSIFICATION_TYPE = U
NORAD_CAT_ID   = 25544
ELEMENT_SET_NO = 999
REV_AT_EPOCH   = 55429
BSTAR          = .20315178E-3
MEAN_MOTION_DOT = .10485E-3
MEAN_MOTION_DDOT = 0

CCSDS_OMM_VERS = 2.0
CREATION_DATE  = 
ORIGINATOR     = 

OBJECT_NAME    = CSS (TIANHE)
OBJECT_ID      = 2021-035A
CENTER_NAME    = EARTH
REF_FRAME      = TEME
TIME_SYSTEM    = UTC
MEAN_ELEMENT_THEORY = SGP/SGP4

EPOCH          = 2026-02-24T08:07:25.889376
MEAN_MOTION    = 15.60074012
ECCENTRICITY   = .00054742
INCLINATION    = 41.4667
RA_OF_ASC_NODE = 289.3617
ARG_OF_PERICENTER = 185.8105
MEAN_ANOMALY   = 174.2671

EPHEMERIS_TYPE = 0
CLASSIFICATION_TYPE = U
NORAD_CAT_ID   = 48274
ELEMENT_SET_NO = 999
REV_AT_EPOCH   = 27552
BSTAR          = .21704682E-3
MEAN_MOTION_DOT = .17817E-3
MEAN_MOTION_DDOT = 0

CCSDS_OMM_VERS = 2.0
CREATION_DATE  = 
ORIGINATOR     = 

OBJECT_NAME    = ISS (NAUKA)
OBJECT_ID      = 2021-066A
CENTER_NAME    = EARTH
REF_FRAME      = TEME
TIME_SYSTEM    = UTC
MEAN_ELEMENT_THEORY = SGP/SGP4

EPOCH          = 2026-02-24T12:58:47.876160
MEAN_MOTION    = 15.48264633
ECCENTRICITY   = .00083509
INCLINATION    = 51.6319
RA_OF_ASC_NODE = 137.3540
ARG_OF_PERICENTER = 128.7945
MEAN_ANOMALY   = 231.3790

EPHEMERIS_TYPE = 0
CLASSIFICATION_TYPE = U
NORAD_CAT_ID   = 49044
ELEMENT_SET_NO = 999
REV_AT_EPOCH   = 23044
BSTAR          = .20315178E-3
MEAN_MOTION_DOT = .10485E-3
MEAN_MOTION_DDOT = 0

CCSDS_OMM_VERS = 2.0
CREATION_DATE  = 
ORIGINATOR     = 

OBJECT_NAME    = FREGAT DEB
OBJECT_ID      = 2011-037PF
CENTER_NAME    = EARTH
REF_FRAME      = TEME
TIME_SYSTEM    = UTC
MEAN_ELEMENT_THEORY = SGP/SGP4

EPOCH          = 2026-02-24T03:19:11.560800
MEAN_MOTION    = 12.39303842
ECCENTRICITY   = .09485072
INCLINATION    = 51.6512
RA_OF_ASC_NODE = 341.3641
ARG_OF_PERICENTER = 28.2793
MEAN_ANOMALY   = 336.6367

EPHEMERIS_TYPE = 0
CLASSIFICATION_TYPE = U
NORAD_CAT_ID   = 49271
ELEMENT_SET_NO = 999
REV_AT_EPOCH   = 21101
BSTAR          = .46705261E-1
MEAN_MOTION_DOT = .30636E-3
MEAN_MOTION_DDOT = 0

CCSDS_OMM_VERS = 2.0
CREATION_DATE  = 
ORIGINATOR     = 

OBJECT_NAME    = CSS (WENTIAN)
OBJECT_ID      = 2022-085A
CENTER_NAME    = EARTH
REF_FRAME      = TEME
TIME_SYSTEM    = UTC
MEAN_ELEMENT_THEORY = SGP/SGP4

EPOCH          = 2026-02-24T08:07:25.889376
MEAN_MOTION    = 15.60074012
ECCENTRICITY   = .00054742
INCLINATION    = 41.4667
RA_OF_ASC_NODE = 289.3617
ARG_OF_PERICENTER = 185.8105
MEAN_ANOMALY   = 174.2671

EPHEMERIS_TYPE = 0
CLASSIFICATION_TYPE = U
NORAD_CAT_ID   = 53239
ELEMENT_SET_NO = 999
REV_AT_EPOCH   = 17384
BSTAR          = .21704682E-3
MEAN_MOTION_DOT = .17817E-3
MEAN_MOTION_DDOT = 0

CCSDS_OMM_VERS = 2.0
CREATION_DATE  = 
ORIGINATOR     = 

OBJECT_NAME    = CSS (MENGTIAN)
OBJECT_ID      = 2022-143A
CENTER_NAME    = EARTH
REF_FRAME      = TEME
TIME_SYSTEM    = UTC
MEAN_ELEMENT_THEORY = SGP/SGP4

EPOCH          = 2026-02-24T08:07:25.889376
MEAN_MOTION    = 15.60074012
ECCENTRICITY   = .00054742
INCLINATION    = 41.4667
RA_OF_ASC_NODE = 289.3617
ARG_OF_PERICENTER = 185.8105
MEAN_ANOMALY   = 174.2671

EPHEMERIS_TYPE = 0
CLASSIFICATION_TYPE = U
NORAD_CAT_ID   = 54216
ELEMENT_SET_NO = 999
REV_AT_EPOCH   = 15864
BSTAR          = .21704682E-3
MEAN_MOTION_DOT = .17817E-3
MEAN_MOTION_DDOT = 0

CCSDS_OMM_VERS = 2.0
CREATION_DATE  = 
ORIGINATOR     = 

OBJECT_NAME    = PROGRESS-MS 31
OBJECT_ID      = 2025-146A
CENTER_NAME    = EARTH
REF_FRAME      = TEME
TIME_SYSTEM    = UTC
MEAN_ELEMENT_THEORY = SGP/SGP4

EPOCH          = 2026-02-24T12:58:47.876160
MEAN_MOTION    = 15.48264633
ECCENTRICITY   = .00083509
INCLINATION    = 51.6319
RA_OF_ASC_NODE = 137.3540
ARG_OF_PERICENTER = 128.7945
MEAN_ANOMALY   = 231.3790

EPHEMERIS_TYPE = 0
CLASSIFICATION_TYPE = U
NORAD_CAT_ID   = 64751
ELEMENT_SET_NO = 999
REV_AT_EPOCH   = 675
BSTAR          = .20315178E-3
MEAN_MOTION_DOT = .10485E-3
MEAN_MOTION_DDOT = 0

CCSDS_OMM_VERS = 2.0
CREATION_DATE  = 
ORIGINATOR     = 

OBJECT_NAME    = TIANZHOU-9
OBJECT_ID      = 2025-149A
CENTER_NAME    = EARTH
REF_FRAME      = TEME
TIME_SYSTEM    = UTC
MEAN_ELEMENT_THEORY = SGP/SGP4

EPOCH          = 2026-02-24T08:07:25.889376
MEAN_MOTION    = 15.60074012
ECCENTRICITY   = .00054742
INCLINATION    = 41.4667
RA_OF_ASC_NODE = 289.3617
ARG_OF_PERICENTER = 185.8105
MEAN_ANOMALY   = 174.2671

EPHEMERIS_TYPE = 0
CLASSIFICATION_TYPE = U
NORAD_CAT_ID   = 64786
ELEMENT_SET_NO = 999
REV_AT_EPOCH   = 25530
BSTAR          = .21704682E-3
MEAN_MOTION_DOT = .17817E-3
MEAN_MOTION_DDOT = 0

CCSDS_OMM_VERS = 2.0
CREATION_DATE  = 
ORIGINATOR     = 

OBJECT_NAME    = DRAGON CRS-33
OBJECT_ID      = 2025-186A
CENTER_NAME    = EARTH
REF_FRAME      = TEME
TIME_SYSTEM    = UTC
MEAN_ELEMENT_THEORY = SGP/SGP4

EPOCH          = 2026-02-24T12:58:47.876160
MEAN_MOTION    = 15.48264633
ECCENTRICITY   = .00083509
INCLINATION    = 51.6319
RA_OF_ASC_NODE = 137.3540
ARG_OF_PERICENTER = 128.7945
MEAN_ANOMALY   = 231.3790

EPHEMERIS_TYPE = 0
CLASSIFICATION_TYPE = U
NORAD_CAT_ID   = 65304
ELEMENT_SET_NO = 999
REV_AT_EPOCH   = 11
BSTAR          = .20315178E-3
MEAN_MOTION_DOT = .10485E-3
MEAN_MOTION_DDOT = 0

CCSDS_OMM_VERS = 2.0
CREATION_DATE  = 
ORIGINATOR     = 

OBJECT_NAME    = PROGRESS-MS 32
OBJECT_ID      = 2025-204A
CENTER_NAME    = EARTH
REF_FRAME      = TEME
TIME_SYSTEM    = UTC
MEAN_ELEMENT_THEORY = SGP/SGP4

EPOCH          = 2026-02-24T12:58:47.876160
MEAN_MOTION    = 15.48264633
ECCENTRICITY   = .00083509
INCLINATION    = 51.6319
RA_OF_ASC_NODE = 137.3540
ARG_OF_PERICENTER = 128.7945
MEAN_ANOMALY   = 231.3790

EPHEMERIS_TYPE = 0
CLASSIFICATION_TYPE = U
NORAD_CAT_ID   = 65586
ELEMENT_SET_NO = 999
REV_AT_EPOCH   = 27
BSTAR          = .20315178E-3
MEAN_MOTION_DOT = .10485E-3
MEAN_MOTION_DDOT = 0

CCSDS_OMM_VERS = 2.0
CREATION_DATE  = 
ORIGINATOR     = 

OBJECT_NAME    = CYGNUS NG-23
OBJECT_ID      = 2025-208A
CENTER_NAME    = EARTH
REF_FRAME      = TEME
TIME_SYSTEM    = UTC
MEAN_ELEMENT_THEORY = SGP/SGP4

EPOCH          = 2026-02-24T12:58:47.876160
MEAN_MOTION    = 15.48264633
ECCENTRICITY   = .00083509
INCLINATION    = 51.6319
RA_OF_ASC_NODE = 137.3540
ARG_OF_PERICENTER = 128.7945
MEAN_ANOMALY   = 231.3790

EPHEMERIS_TYPE = 0
CLASSIFICATION_TYPE = U
NORAD_CAT_ID   = 65616
ELEMENT_SET_NO = 999
REV_AT_EPOCH   = 22
BSTAR          = .20315178E-3
MEAN_MOTION_DOT = .10485E-3
MEAN_MOTION_DDOT = 0

CCSDS_OMM_VERS = 2.0
CREATION_DATE  = 
ORIGINATOR     = 

OBJECT_NAME    = ISS OBJECT XK
OBJECT_ID      = 1998-067XK
CENTER_NAME    = EARTH
REF_FRAME      = TEME
TIME_SYSTEM    = UTC
MEAN_ELEMENT_THEORY = SGP/SGP4

EPOCH          = 2026-02-24T13:31:18.103008
MEAN_MOTION    = 15.95842562
ECCENTRICITY   = .00074972
INCLINATION    = 51.6189
RA_OF_ASC_NODE = 116.3914
ARG_OF_PERICENTER = 15.0336
MEAN_ANOMALY   = 345.0894

EPHEMERIS_TYPE = 0
CLASSIFICATION_TYPE = U
NORAD_CAT_ID   = 65731
ELEMENT_SET_NO = 999
REV_AT_EPOCH   = 2479
BSTAR          = .11269897E-2
MEAN_MOTION_DOT = .468529E-2
MEAN_MOTION_DDOT = .10043526E-3

