ISS (ZARYA)             
1 25544U 98067A   26055.54083190  .00010485  00000+0  20315-3 0  9999
2 25544  51.6319 137.3540 0008350 128.7945 231.3790 15.48264633554294
CSS (TIANHE)            
1 48274U 21035A   26055.33849409  .00017817  00000+0  21705-3 0  9995
2 48274  41.4667 289.3617 0005474 185.8105 174.2671 15.60074012275524
ISS (NAUKA)             
1 49044U 21066A   26055.54083190  .00010485  00000+0  20315-3 0  9995
2 49044  51.6319 137.3540 0008350 128.7945 231.3790 15.48264633230443
FREGAT DEB              
1 49271U 11037PF  26055.13832825  .00030636  00000+0  46705-1 0  9995
2 49271  51.6512 341.3641 0948507  28.2793 336.6367 12.39303842211015
CSS (WENTIAN)           
1 53239U 22085A   26055.33849409  .00017817  00000+0  21705-3 0  9998
2 53239  41.4667 289.3617 0005474 185.8105 174.2671 15.60074012173843
CSS (MENGTIAN)          
1 54216U 22143A   26055.33849409  .00017817  00000+0  21705-3 0  9999
2 54216  41.4667 289.3617 0005474 185.8105 174.2671 15.60074012158640
PROGRESS-MS 31          
1 64751U 25146A   26055.54083190  .00010485  00000+0  20315-3 0  9990
2 64751  51.6319 137.3540 0008350 128.7945 231.3790 15.48264633  6750
TIANZHOU-9              
1 64786U 25149A   26055.33849409  .00017817  00000+0  21705-3 0  9991
2 64786  41.4667 289.3617 0005474 185.8105 174.2671 15.60074012255304
DRAGON CRS-33           
1 65304U 25186A   26055.54083190  .00010485  00000+0  20315-3 0  9999
2 65304  51.6319 137.3540 0008350 128.7945 231.3790 15.48264633   119
PROGRESS-MS 32          
1 65586U 25204A   26055.54083190  .00010485  00000+0  20315-3 0  9992
2 65586  51.6319 137.3540 0008350 128.7945 231.3790 15.48264633   278
CYGNUS NG-23            
1 65616U 25208A   26055.54083190  .00010485  00000+0  20315-3 0  9990
2 65616  51.6319 137.3540 0008350 128.7945 231.3790 15.48264633   227
ISS OBJECT XK           
1 65731U 98067XK  26055.56340397  .00468529  10044-3  11270-2 0  9996
2 65731  51.6189 116.3914 0007497  15.0336 345.0894 15.95842562 24796
